{
  "type": "FeatureCollection",
  "name": "Galapagos Marine Reserve (GMR)",
  "crs": { "type": "name", "properties": { "name": "urn:ogc:def:crs:OGC:1.3:CRS84" } },
  "features": [
    {
      "type": "Feature",
      "properties": {
        "id": "WDPA_GMR",
        "name": "Galapagos Marine Reserve",
        "designation": "Marine Reserve / UNESCO World Heritage",
        "status": "Designated",
        "rep_area_km2": 138000,
        "governance": "Ecuador Ministry of Environment"
      },
      "geometry": {
        "type": "Polygon",
        "coordinates": [
          [
            [-92.20, 1.70],
            [-89.15, 1.70],
            [-89.15, -1.65],
            [-92.20, -1.65],
            [-92.20, 1.70]
          ]
        ]
      }
    }
  ]
}
